{"type":"FeatureCollection","features":[{"type":"Feature","geometry":null,"id":"0_0","properties":{"collection":"COPERNICUS/S5P/NRTI/L3_CO","d20260801_count":81,"d20260801_mean":0.03541068664177796,"d20260802_count":0,"d20260803_count":0,"d20260804_count":81,"d20260804_mean":0.03467597096641603,"d20260805_count":81,"d20260805_mean":0.03745266500142494,"d20260806_count":81,"d20260806_mean":0.037655175866667306,"d20260807_count":52,"d20260807_mean":0.0397294597209038,"d20260808_count":0,"d20260809_count":62,"d20260809_mean":0.03332476365497409,"d20260810_count":81,"d20260810_mean":0.03576474032929188,"d20260811_count":81,"d20260811_mean":0.03440062932359208,"d20260812_count":78,"d20260812_mean":0.04157965520199379,"d20260813_count":46,"d20260813_mean":0.039870611757522954,"d20260814_count":81,"d20260814_mean":0.03934215098858311,"d20260815_count":68,"d20260815_mean":0.036995116767794045,"d20260816_count":60,"d20260816_mean":0.031365045016836304,"d20260817_count":81,"d20260817_mean":0.03953891552901896,"d20260818_count":36,"d20260818_mean":0.03405311330177411,"d20260819_count":0,"d20260820_count":81,"d20260820_mean":0.03563385299202389,"d20260821_count":81,"d20260821_mean":0.04004150520276228,"d20260822_count":0,"d20260823_count":57,"d20260823_mean":0.04301830489562649,"d20260824_count":0,"d20260825_count":81,"d20260825_mean":0.03574781425475799,"d20260826_count":81,"d20260826_mean":0.03586925718157344,"d20260827_count":81,"d20260827_mean":0.03655373077186507,"d20260828_count":63,"d20260828_mean":0.037951865826858076,"d20260829_count":16,"d20260829_mean":0.038937025732909844,"d20260830_count":81,"d20260830_mean":0.03872595574234091,"d20260831_count":81,"d20260831_mean":0.03762858478799449,"d20260901_count":81,"d20260901_mean":0.03800172411467764,"d20260902_count":66,"d20260902_mean":0.03852619132758683,"d20260903_count":0,"d20260904_count":81,"d20260904_mean":0.03572850960941249,"d20260905_count":81,"d20260905_mean":0.03705020107736293,"d20260906_count":81,"d20260906_mean":0.03834004631091691,"d20260907_count":78,"d20260907_mean":0.035627384557573416,"d20260908_count":81,"d20260908_mean":0.03731806921263291,"d20260909_count":0,"d20260910_count":78,"d20260910_mean":0.031492162904109854,"d20260911_count":81,"d20260911_mean":0.03284702913315909,"d20260912_count":81,"d20260912_mean":0.03285897802880854,"d20260913_count":81,"d20260913_mean":0.034370542953724215,"d20260914_count":0,"d20260915_count":79,"d20260915_mean":0.035014292211875374,"d20260916_count":81,"d20260916_mean":0.03196544772412704,"d20260917_count":59,"d20260917_mean":0.034804532227302815,"d20260918_count":17,"d20260918_mean":0.037970872304983666,"d20260919_count":70,"d20260919_mean":0.03499428242301514,"d20260920_count":81,"d20260920_mean":0.03491069924353929,"d20260921_count":81,"d20260921_mean":0.03715229901775495,"d20260922_count":81,"d20260922_mean":0.03810685024753979,"d20260923_count":81,"d20260923_mean":0.03434638396111262,"d20260924_count":81,"d20260924_mean":0.03701418211104669,"d20260925_count":2,"d20260925_mean":0.0317226868388012,"d20260926_count":81,"d20260926_mean":0.03665699339441199,"d20260927_count":81,"d20260927_mean":0.03443332137426739,"d20260928_count":81,"d20260928_mean":0.03300385083616242,"d20260929_count":81,"d20260929_mean":0.037175619676138034,"d20260930_count":81,"d20260930_mean":0.03667592015250935,"end_exclusive":"2026-10-01","latitude":25.2048,"longitude":55.2708,"metric":"CO","radius_m":5000,"site_id":"dubai","start":"2026-08-01"}},{"type":"Feature","geometry":null,"id":"0_1","properties":{"collection":"COPERNICUS/S5P/NRTI/L3_CO","d20260801_count":89,"d20260801_mean":0.03580893086160419,"d20260802_count":48,"d20260802_mean":0.042807031299883835,"d20260803_count":68,"d20260803_mean":0.03819964172342946,"d20260804_count":89,"d20260804_mean":0.03602271465431258,"d20260805_count":89,"d20260805_mean":0.03666497189054245,"d20260806_count":78,"d20260806_mean":0.03619473187309632,"d20260807_count":89,"d20260807_mean":0.03626808737408928,"d20260808_count":27,"d20260808_mean":0.034924827417384126,"d20260809_count":89,"d20260809_mean":0.03547102083256355,"d20260810_count":89,"d20260810_mean":0.03827041345314842,"d20260811_count":89,"d20260811_mean":0.03720459833212919,"d20260812_count":82,"d20260812_mean":0.039585526229337704,"d20260813_count":8,"d20260813_mean":0.03636457818173598,"d20260814_count":88,"d20260814_mean":0.03846373047027884,"d20260815_count":47,"d20260815_mean":0.035168227858387406,"d20260816_count":1,"d20260816_mean":0.044190343530772454,"d20260817_count":88,"d20260817_mean":0.03786867667767174,"d20260818_count":89,"d20260818_mean":0.038455489518467764,"d20260819_count":22,"d20260819_mean":0.03420009478360383,"d20260820_count":89,"d20260820_mean":0.03574334279948758,"d20260821_count":89,"d20260821_mean":0.04079756454215181,"d20260822_count":14,"d20260822_mean":0.03880749217307391,"d20260823_count":69,"d20260823_mean":0.041135495687019054,"d20260824_count":77,"d20260824_mean":0.03394367886262413,"d20260825_count":89,"d20260825_mean":0.036763125287152094,"d20260826_count":89,"d20260826_mean":0.039625595323619506,"d20260827_count":89,"d20260827_mean":0.03777721507609998,"d20260828_count":88,"d20260828_mean":0.03783277485647959,"d20260829_count":89,"d20260829_mean":0.037153299396502436,"d20260830_count":89,"d20260830_mean":0.03825981293276743,"d20260831_count":73,"d20260831_mean":0.03931744388933818,"d20260901_count":89,"d20260901_mean":0.0427237369315519,"d20260902_count":76,"d20260902_mean":0.041350635673080664,"d20260903_count":79,"d20260903_mean":0.039637226914643144,"d20260904_count":0,"d20260905_count":89,"d20260905_mean":0.03658810973453326,"d20260906_count":89,"d20260906_mean":0.03741272527892112,"d20260907_count":87,"d20260907_mean":0.036551119813854144,"d20260908_count":89,"d20260908_mean":0.03433592699788226,"d20260909_count":89,"d20260909_mean":0.03294117721582193,"d20260910_count":89,"d20260910_mean":0.03309145273540375,"d20260911_count":87,"d20260911_mean":0.03719302009441599,"d20260912_count":89,"d20260912_mean":0.04380342502727816,"d20260913_count":83,"d20260913_mean":0.036540174380343696,"d20260914_count":77,"d20260914_mean":0.035805934835220855,"d20260915_count":89,"d20260915_mean":0.03769672816452349,"d20260916_count":85,"d20260916_mean":0.03684611659883265,"d20260917_count":89,"d20260917_mean":0.03926524561202603,"d20260918_count":70,"d20260918_mean":0.036297586655485124,"d20260919_count":89,"d20260919_mean":0.041058851460495205,"d20260920_count":6,"d20260920_mean":0.03616397451925106,"d20260921_count":89,"d20260921_mean":0.03546433610777731,"d20260922_count":89,"d20260922_mean":0.040882384181568796,"d20260923_count":89,"d20260923_mean":0.03745445763527315,"d20260924_count":49,"d20260924_mean":0.03510611201150503,"d20260925_count":89,"d20260925_mean":0.033880154493824734,"d20260926_count":89,"d20260926_mean":0.03654767381497324,"d20260927_count":39,"d20260927_mean":0.038543068086051395,"d20260928_count":89,"d20260928_mean":0.03807274524650964,"d20260929_count":82,"d20260929_mean":0.03895362925936811,"d20260930_count":89,"d20260930_mean":0.04239893351885951,"end_exclusive":"2026-10-01","latitude":25.0083,"longitude":55.0875,"metric":"CO","radius_m":5000,"site_id":"jebel-ali","start":"2026-08-01"}},{"type":"Feature","geometry":null,"id":"1_0","properties":{"collection":"COPERNICUS/S5P/NRTI/L3_SO2","d20260801_count":81,"d20260801_mean":4.6829138753573953E-5,"d20260802_count":81,"d20260802_mean":2.3327948055978308E-4,"d20260803_count":81,"d20260803_mean":-1.4083038351591902E-4,"d20260804_count":81,"d20260804_mean":-3.342990298239975E-5,"d20260805_count":81,"d20260805_mean":3.658661993669087E-4,"d20260806_count":81,"d20260806_mean":4.839523175381872E-4,"d20260807_count":81,"d20260807_mean":4.1143056254939016E-4,"d20260808_count":81,"d20260808_mean":-2.4978290412439453E-4,"d20260809_count":81,"d20260809_mean":1.2713178263425504E-4,"d20260810_count":81,"d20260810_mean":1.1760800194350393E-5,"d20260811_count":81,"d20260811_mean":2.990148025372984E-4,"d20260812_count":81,"d20260812_mean":1.6115769737347317E-4,"d20260813_count":81,"d20260813_mean":4.0032269089830747E-4,"d20260814_count":81,"d20260814_mean":9.64760611496711E-5,"d20260815_count":81,"d20260815_mean":9.920914659981333E-5,"d20260816_count":81,"d20260816_mean":2.741152461821358E-4,"d20260817_count":81,"d20260817_mean":3.234443573972273E-4,"d20260818_count":81,"d20260818_mean":-7.817272005936574E-5,"d20260819_count":81,"d20260819_mean":4.845898374446765E-5,"d20260820_count":81,"d20260820_mean":-6.567825919027473E-5,"d20260821_count":81,"d20260821_mean":1.0051043993084235E-4,"d20260822_count":0,"d20260823_count":81,"d20260823_mean":2.4067012320539897E-4,"d20260824_count":81,"d20260824_mean":-7.69093282649093E-5,"d20260825_count":81,"d20260825_mean":-9.590900950995696E-5,"d20260826_count":81,"d20260826_mean":2.033726440227718E-4,"d20260827_count":81,"d20260827_mean":3.7632224597557027E-4,"d20260828_count":81,"d20260828_mean":4.833323305004269E-4,"d20260829_count":81,"d20260829_mean":1.503252449622658E-4,"d20260830_count":81,"d20260830_mean":-8.721443327467317E-6,"d20260831_count":81,"d20260831_mean":1.8582382399100035E-4,"d20260901_count":81,"d20260901_mean":-1.842519060586644E-5,"d20260902_count":81,"d20260902_mean":2.143600833315712E-4,"d20260903_count":81,"d20260903_mean":-6.231003797129903E-5,"d20260904_count":81,"d20260904_mean":7.52425646891939E-5,"d20260905_count":81,"d20260905_mean":2.6487532090995924E-5,"d20260906_count":81,"d20260906_mean":4.8659328293014236E-5,"d20260907_count":81,"d20260907_mean":-9.99483884586621E-6,"d20260908_count":81,"d20260908_mean":1.7483266262486628E-4,"d20260909_count":81,"d20260909_mean":2.4556262861941483E-4,"d20260910_count":81,"d20260910_mean":3.7726520925401846E-4,"d20260911_count":81,"d20260911_mean":-8.696931751362105E-5,"d20260912_count":81,"d20260912_mean":6.370981790472454E-5,"d20260913_count":81,"d20260913_mean":1.3196657600704568E-4,"d20260914_count":81,"d20260914_mean":-1.5387641567921918E-4,"d20260915_count":81,"d20260915_mean":1.439688007694012E-4,"d20260916_count":81,"d20260916_mean":1.1404020439752667E-4,"d20260917_count":81,"d20260917_mean":1.7958682480197775E-4,"d20260918_count":81,"d20260918_mean":3.027833695491438E-4,"d20260919_count":81,"d20260919_mean":-5.700393462671939E-5,"d20260920_count":81,"d20260920_mean":-1.7198572711023136E-4,"d20260921_count":81,"d20260921_mean":2.9424184030068577E-5,"d20260922_count":81,"d20260922_mean":8.176228972648718E-4,"d20260923_count":81,"d20260923_mean":-1.9006572783289538E-4,"d20260924_count":81,"d20260924_mean":4.1286651452183666E-4,"d20260925_count":81,"d20260925_mean":1.571606837380106E-4,"d20260926_count":81,"d20260926_mean":5.502728186569048E-4,"d20260927_count":81,"d20260927_mean":1.359231739685368E-4,"d20260928_count":81,"d20260928_mean":-4.005888204876404E-6,"d20260929_count":81,"d20260929_mean":-8.943643826976116E-5,"d20260930_count":81,"d20260930_mean":0.0010186384184425361,"end_exclusive":"2026-10-01","latitude":25.2048,"longitude":55.2708,"metric":"SO2","radius_m":5000,"site_id":"dubai","start":"2026-08-01"}},{"type":"Feature","geometry":null,"id":"1_1","properties":{"collection":"COPERNICUS/S5P/NRTI/L3_SO2","d20260801_count":89,"d20260801_mean":6.754076284611652E-5,"d20260802_count":89,"d20260802_mean":1.934336805842732E-4,"d20260803_count":89,"d20260803_mean":2.8410967808926462E-5,"d20260804_count":89,"d20260804_mean":-3.133249052613131E-5,"d20260805_count":89,"d20260805_mean":-3.4132348974049024E-5,"d20260806_count":89,"d20260806_mean":6.728336916263156E-5,"d20260807_count":89,"d20260807_mean":3.571859066480844E-4,"d20260808_count":89,"d20260808_mean":-1.754601227200409E-4,"d20260809_count":89,"d20260809_mean":2.2733366529007282E-4,"d20260810_count":89,"d20260810_mean":-1.3900748956518703E-5,"d20260811_count":89,"d20260811_mean":3.091985576995632E-5,"d20260812_count":89,"d20260812_mean":1.7448670246240423E-4,"d20260813_count":89,"d20260813_mean":-5.776650646015997E-5,"d20260814_count":89,"d20260814_mean":1.2812319861500927E-4,"d20260815_count":89,"d20260815_mean":2.034210636286499E-5,"d20260816_count":0,"d20260817_count":89,"d20260817_mean":4.0302249175507715E-4,"d20260818_count":89,"d20260818_mean":-2.0467417220268333E-5,"d20260819_count":89,"d20260819_mean":1.1261041687883422E-4,"d20260820_count":89,"d20260820_mean":1.0258810346712811E-4,"d20260821_count":89,"d20260821_mean":8.723768830030868E-5,"d20260822_count":29,"d20260822_mean":3.992380959370712E-5,"d20260823_count":89,"d20260823_mean":1.6070026509596225E-4,"d20260824_count":89,"d20260824_mean":9.356079997595014E-5,"d20260825_count":89,"d20260825_mean":4.425436997967534E-5,"d20260826_count":89,"d20260826_mean":4.51670606751152E-5,"d20260827_count":89,"d20260827_mean":3.32156894804209E-4,"d20260828_count":89,"d20260828_mean":4.290628458123354E-4,"d20260829_count":89,"d20260829_mean":4.588192600592933E-5,"d20260830_count":89,"d20260830_mean":-4.7762305868899945E-5,"d20260831_count":89,"d20260831_mean":1.6365433156934907E-4,"d20260901_count":89,"d20260901_mean":1.6347808124540222E-4,"d20260902_count":89,"d20260902_mean":1.2557579321422242E-4,"d20260903_count":89,"d20260903_mean":-1.2561314474909965E-4,"d20260904_count":89,"d20260904_mean":1.9303846652043372E-4,"d20260905_count":89,"d20260905_mean":1.17969873949939E-4,"d20260906_count":89,"d20260906_mean":-4.546842235504288E-5,"d20260907_count":89,"d20260907_mean":2.4139526772542033E-5,"d20260908_count":89,"d20260908_mean":3.904680795030527E-6,"d20260909_count":89,"d20260909_mean":1.857748490494093E-4,"d20260910_count":89,"d20260910_mean":5.397046134986659E-4,"d20260911_count":89,"d20260911_mean":1.3203111058462082E-4,"d20260912_count":89,"d20260912_mean":-5.661401479404484E-5,"d20260913_count":89,"d20260913_mean":1.243916447894783E-4,"d20260914_count":89,"d20260914_mean":1.5622014110892648E-4,"d20260915_count":89,"d20260915_mean":1.009027312281752E-4,"d20260916_count":89,"d20260916_mean":2.2111712109799066E-4,"d20260917_count":89,"d20260917_mean":9.245381574229787E-5,"d20260918_count":89,"d20260918_mean":3.6133092396713017E-4,"d20260919_count":89,"d20260919_mean":4.379424621247658E-4,"d20260920_count":89,"d20260920_mean":-6.254769128385561E-5,"d20260921_count":89,"d20260921_mean":-2.4047513742036578E-5,"d20260922_count":89,"d20260922_mean":4.943265002986771E-4,"d20260923_count":89,"d20260923_mean":5.9571390050381435E-5,"d20260924_count":89,"d20260924_mean":5.033297763796846E-4,"d20260925_count":89,"d20260925_mean":2.5279648275015675E-4,"d20260926_count":89,"d20260926_mean":4.514144397819656E-4,"d20260927_count":89,"d20260927_mean":9.234570194403127E-5,"d20260928_count":89,"d20260928_mean":1.0704628833681427E-4,"d20260929_count":89,"d20260929_mean":1.3935550970435478E-4,"d20260930_count":89,"d20260930_mean":8.977743855049133E-4,"end_exclusive":"2026-10-01","latitude":25.0083,"longitude":55.0875,"metric":"SO2","radius_m":5000,"site_id":"jebel-ali","start":"2026-08-01"}},{"type":"Feature","geometry":null,"id":"2_0","properties":{"collection":"COPERNICUS/S5P/OFFL/L3_CH4","d20260801_count":0,"d20260802_count":0,"d20260803_count":0,"d20260804_count":0,"d20260805_count":0,"d20260806_count":0,"d20260807_count":0,"d20260808_count":0,"d20260809_count":35,"d20260809_mean":1958.4130492164031,"d20260810_count":49,"d20260810_mean":1964.5643268713566,"d20260811_count":8,"d20260811_mean":1970.3468788883013,"d20260812_count":0,"d20260813_count":0,"d20260814_count":0,"d20260815_count":0,"d20260816_count":0,"d20260817_count":0,"d20260818_count":0,"d20260819_count":0,"d20260820_count":56,"d20260820_mean":1964.8547234964801,"d20260821_count":81,"d20260821_mean":1982.3152548942712,"d20260822_count":0,"d20260823_count":0,"d20260824_count":0,"d20260825_count":81,"d20260825_mean":1971.0166145620549,"d20260826_count":81,"d20260826_mean":1972.210679450343,"d20260827_count":44,"d20260827_mean":1948.6702564016582,"d20260828_count":61,"d20260828_mean":1955.6894825777483,"d20260829_count":0,"d20260830_count":81,"d20260830_mean":1993.2004117840725,"d20260831_count":81,"d20260831_mean":1978.859634319993,"d20260901_count":81,"d20260901_mean":1972.1782337706265,"d20260902_count":0,"d20260903_count":0,"d20260904_count":81,"d20260904_mean":2030.3044470769776,"d20260905_count":81,"d20260905_mean":1966.376897206171,"d20260906_count":81,"d20260906_mean":1969.2080905950047,"d20260907_count":0,"d20260908_count":0,"d20260909_count":0,"d20260910_count":81,"d20260910_mean":1982.2633220981163,"d20260911_count":81,"d20260911_mean":1970.614828358976,"d20260912_count":12,"d20260912_mean":1947.000468684257,"d20260913_count":0,"d20260914_count":0,"d20260915_count":81,"d20260915_mean":1974.1996509044145,"d20260916_count":81,"d20260916_mean":1980.8792462072017,"d20260917_count":81,"d20260917_mean":1970.0495737437006,"d20260918_count":81,"d20260918_mean":1954.7158320470428,"d20260919_count":81,"d20260919_mean":1965.4449735181356,"d20260920_count":81,"d20260920_mean":2001.780350959062,"d20260921_count":81,"d20260921_mean":1968.6514100633906,"d20260922_count":81,"d20260922_mean":1958.6481447566796,"d20260923_count":81,"d20260923_mean":1936.5448386373293,"d20260924_count":81,"d20260924_mean":1931.7675165738003,"d20260925_count":2,"d20260925_mean":1944.2038690155252,"d20260926_count":81,"d20260926_mean":1960.4268722069999,"d20260927_count":81,"d20260927_mean":1971.5748412420387,"d20260928_count":81,"d20260928_mean":1941.9883927978985,"d20260929_count":81,"d20260929_mean":1949.670469453219,"d20260930_count":0,"end_exclusive":"2026-10-01","latitude":25.2048,"longitude":55.2708,"metric":"CH4","radius_m":5000,"site_id":"dubai","start":"2026-08-01"}},{"type":"Feature","geometry":null,"id":"2_1","properties":{"collection":"COPERNICUS/S5P/OFFL/L3_CH4","d20260801_count":0,"d20260802_count":0,"d20260803_count":0,"d20260804_count":0,"d20260805_count":25,"d20260805_mean":1967.6839964210749,"d20260806_count":0,"d20260807_count":0,"d20260808_count":0,"d20260809_count":35,"d20260809_mean":1967.8749601177433,"d20260810_count":44,"d20260810_mean":1976.4598487443225,"d20260811_count":0,"d20260812_count":0,"d20260813_count":0,"d20260814_count":0,"d20260815_count":89,"d20260815_mean":1980.1748305587325,"d20260816_count":0,"d20260817_count":0,"d20260818_count":0,"d20260819_count":0,"d20260820_count":89,"d20260820_mean":1982.4022621203828,"d20260821_count":69,"d20260821_mean":1977.804837579159,"d20260822_count":0,"d20260823_count":0,"d20260824_count":89,"d20260824_mean":1989.1865054558145,"d20260825_count":89,"d20260825_mean":1965.2399924453127,"d20260826_count":89,"d20260826_mean":1977.021123665329,"d20260827_count":89,"d20260827_mean":1943.9124380222652,"d20260828_count":72,"d20260828_mean":1950.5685672506522,"d20260829_count":0,"d20260830_count":89,"d20260830_mean":1998.687649519206,"d20260831_count":87,"d20260831_mean":1991.8221847476743,"d20260901_count":89,"d20260901_mean":1960.5885011944279,"d20260902_count":0,"d20260903_count":0,"d20260904_count":89,"d20260904_mean":2017.024153422514,"d20260905_count":89,"d20260905_mean":1969.2685272886295,"d20260906_count":89,"d20260906_mean":1964.3680099609912,"d20260907_count":0,"d20260908_count":2,"d20260908_mean":1982.012293783563,"d20260909_count":89,"d20260909_mean":1992.4792020459138,"d20260910_count":89,"d20260910_mean":1981.785746862758,"d20260911_count":89,"d20260911_mean":1965.9782603209253,"d20260912_count":25,"d20260912_mean":1936.1699576334656,"d20260913_count":0,"d20260914_count":0,"d20260915_count":89,"d20260915_mean":1983.15811301487,"d20260916_count":89,"d20260916_mean":1986.3419248574758,"d20260917_count":89,"d20260917_mean":1950.9842199307134,"d20260918_count":89,"d20260918_mean":1957.0936831901909,"d20260919_count":89,"d20260919_mean":1960.9025113226703,"d20260920_count":89,"d20260920_mean":1988.570967955496,"d20260921_count":89,"d20260921_mean":1968.8010064563166,"d20260922_count":89,"d20260922_mean":1961.5623170057813,"d20260923_count":89,"d20260923_mean":1935.4689041539907,"d20260924_count":89,"d20260924_mean":1957.1136844220816,"d20260925_count":89,"d20260925_mean":1966.3316521241265,"d20260926_count":89,"d20260926_mean":1963.0992173202635,"d20260927_count":89,"d20260927_mean":1963.1785577739868,"d20260928_count":73,"d20260928_mean":1941.3647869467773,"d20260929_count":89,"d20260929_mean":1951.2706843113267,"d20260930_count":0,"end_exclusive":"2026-10-01","latitude":25.0083,"longitude":55.0875,"metric":"CH4","radius_m":5000,"site_id":"jebel-ali","start":"2026-08-01"}}]}