{"type":"FeatureCollection","features":[{"type":"Feature","geometry":null,"id":"0","properties":{"d20260101_count":81,"d20260101_mean":2.9698969992065133E-4,"d20260102_count":81,"d20260102_mean":9.394434025769025E-5,"d20260103_count":81,"d20260103_mean":1.8015488935811856E-4,"d20260104_count":81,"d20260104_mean":1.5554730290190562E-4,"d20260105_count":81,"d20260105_mean":6.539652726729275E-4,"d20260106_count":81,"d20260106_mean":4.859484471871867E-4,"d20260107_count":81,"d20260107_mean":1.4073810698225658E-4,"d20260108_count":81,"d20260108_mean":8.273199743220099E-4,"d20260109_count":81,"d20260109_mean":6.209493102680664E-4,"d20260110_count":6,"d20260110_mean":7.206092889888331E-4,"d20260111_count":81,"d20260111_mean":5.110560334717494E-4,"d20260112_count":81,"d20260112_mean":4.7475042913341415E-4,"d20260113_count":81,"d20260113_mean":4.6340903552414403E-4,"d20260114_count":81,"d20260114_mean":3.287956504364733E-4,"d20260115_count":36,"d20260115_mean":3.362488238866933E-4,"d20260116_count":80,"d20260116_mean":5.988962392984677E-5,"d20260117_count":81,"d20260117_mean":6.595016574913012E-5,"d20260118_count":81,"d20260118_mean":8.10589093800586E-5,"d20260119_count":81,"d20260119_mean":1.787402505096842E-4,"d20260120_count":81,"d20260120_mean":2.7965620560829746E-4,"d20260121_count":81,"d20260121_mean":6.36008751789773E-5,"d20260122_count":81,"d20260122_mean":1.4205336655650304E-4,"d20260123_count":81,"d20260123_mean":2.3878328200763456E-4,"d20260124_count":81,"d20260124_mean":6.423389586901119E-4,"d20260125_count":81,"d20260125_mean":9.440015202047415E-5,"d20260126_count":81,"d20260126_mean":6.657539565855027E-5,"d20260127_count":81,"d20260127_mean":3.5838480447965856E-4,"d20260128_count":81,"d20260128_mean":3.09913670083043E-4,"d20260129_count":81,"d20260129_mean":1.0932848254937613E-4,"d20260130_count":81,"d20260130_mean":1.5543648048194203E-4,"d20260131_count":81,"d20260131_mean":1.5065308650789736E-4,"d20260201_count":81,"d20260201_mean":1.6268536910497836E-4,"d20260202_count":81,"d20260202_mean":2.960093725992685E-4,"d20260203_count":81,"d20260203_mean":6.975324995104359E-4,"d20260204_count":81,"d20260204_mean":2.597438454153819E-4,"d20260205_count":81,"d20260205_mean":2.49483150126604E-4,"d20260206_count":81,"d20260206_mean":5.463234203647609E-4,"d20260207_count":81,"d20260207_mean":4.6103306220031566E-4,"d20260208_count":81,"d20260208_mean":1.7433088411594597E-4,"d20260209_count":81,"d20260209_mean":1.433298944798124E-4,"d20260210_count":81,"d20260210_mean":1.383449056797887E-4,"d20260211_count":81,"d20260211_mean":3.507082499291891E-4,"d20260212_count":81,"d20260212_mean":3.009738675545527E-4,"d20260213_count":81,"d20260213_mean":3.9455077438050375E-4,"d20260214_count":81,"d20260214_mean":3.4967494389462193E-4,"d20260215_count":81,"d20260215_mean":1.3664020996026358E-4,"d20260216_count":81,"d20260216_mean":1.1188671942206941E-4,"d20260217_count":81,"d20260217_mean":5.266903217710211E-4,"d20260218_count":81,"d20260218_mean":5.245504007396601E-4,"d20260219_count":81,"d20260219_mean":8.307619212366642E-4,"d20260220_count":81,"d20260220_mean":0.0010006097385800365,"d20260221_count":81,"d20260221_mean":7.268161335224737E-4,"d20260222_count":81,"d20260222_mean":1.2116369722769383E-4,"d20260223_count":81,"d20260223_mean":2.0057911292093583E-4,"d20260224_count":81,"d20260224_mean":2.3813492744561795E-4,"d20260225_count":81,"d20260225_mean":3.0053862355395846E-4,"d20260226_count":81,"d20260226_mean":8.935461019099128E-5,"d20260227_count":81,"d20260227_mean":1.1167484076322907E-4,"d20260228_count":81,"d20260228_mean":3.8799100334286827E-4,"d20260301_count":81,"d20260301_mean":2.638959542855276E-4,"d20260302_count":81,"d20260302_mean":1.8756035140376486E-4,"d20260303_count":81,"d20260303_mean":4.5101097412126906E-4,"d20260304_count":81,"d20260304_mean":2.4795193028743357E-4,"d20260305_count":81,"d20260305_mean":5.679023891155828E-5,"d20260306_count":0,"d20260307_count":81,"d20260307_mean":6.84839035861066E-5,"d20260308_count":50,"d20260308_mean":5.4923235322653984E-5,"d20260309_count":58,"d20260309_mean":2.488457873274994E-4,"d20260310_count":81,"d20260310_mean":4.7639000519132825E-4,"d20260311_count":12,"d20260311_mean":1.8211470361233708E-4,"d20260312_count":0,"d20260313_count":7,"d20260313_mean":2.5609580905533355E-4,"d20260314_count":81,"d20260314_mean":1.3792763353346506E-4,"d20260315_count":81,"d20260315_mean":5.002477766358228E-4,"d20260316_count":81,"d20260316_mean":4.70237803633483E-4,"d20260317_count":81,"d20260317_mean":1.0238317753342752E-4,"d20260318_count":0,"d20260319_count":81,"d20260319_mean":1.1184960834213903E-4,"d20260320_count":0,"d20260321_count":0,"d20260322_count":81,"d20260322_mean":1.4475048865644066E-4,"d20260323_count":0,"d20260324_count":1,"d20260324_mean":1.0452131044537339E-4,"d20260325_count":0,"d20260326_count":0,"d20260327_count":0,"d20260328_count":81,"d20260328_mean":6.077331230290697E-5,"d20260329_count":81,"d20260329_mean":3.641837480120014E-5,"d20260330_count":80,"d20260330_mean":4.86172185581971E-5,"d20260331_count":0,"d20260401_count":81,"d20260401_mean":5.1065494569718214E-5,"d20260402_count":81,"d20260402_mean":5.850743929428105E-5,"d20260403_count":81,"d20260403_mean":8.31394815804686E-5,"d20260404_count":0,"d20260405_count":81,"d20260405_mean":6.442662932884531E-5,"d20260406_count":0,"d20260407_count":81,"d20260407_mean":4.5683170404849434E-5,"d20260408_count":81,"d20260408_mean":5.0757104550662665E-5,"d20260409_count":0,"d20260410_count":81,"d20260410_mean":3.811362538664427E-4,"d20260411_count":0,"d20260412_count":0,"d20260413_count":39,"d20260413_mean":7.042626941790566E-5,"d20260414_count":69,"d20260414_mean":5.765521834197593E-5,"d20260415_count":81,"d20260415_mean":8.462414056470305E-5,"d20260416_count":81,"d20260416_mean":6.745267390002646E-5,"d20260417_count":81,"d20260417_mean":6.02833493220654E-5,"d20260418_count":81,"d20260418_mean":7.320170002469535E-5,"d20260419_count":81,"d20260419_mean":7.785697188723258E-5,"d20260420_count":81,"d20260420_mean":9.43338328043381E-5,"d20260421_count":81,"d20260421_mean":1.370416693417376E-4,"d20260422_count":81,"d20260422_mean":2.771936412501617E-4,"d20260423_count":81,"d20260423_mean":1.3218304817382218E-4,"d20260424_count":81,"d20260424_mean":8.377894899336567E-5,"d20260425_count":81,"d20260425_mean":8.860264030988126E-5,"d20260426_count":4,"d20260426_mean":6.429227487849947E-5,"d20260427_count":81,"d20260427_mean":5.4610510115631336E-5,"d20260428_count":81,"d20260428_mean":1.0548936273076705E-4,"d20260429_count":81,"d20260429_mean":1.2381564823137786E-4,"d20260430_count":81,"d20260430_mean":8.060069344575516E-5,"d20260501_count":81,"d20260501_mean":7.734205896355963E-5,"d20260502_count":81,"d20260502_mean":6.571076495228521E-5,"d20260503_count":81,"d20260503_mean":1.0105993342843155E-4,"d20260504_count":81,"d20260504_mean":6.686112149997502E-5,"d20260505_count":81,"d20260505_mean":4.6103011132877267E-4,"d20260506_count":81,"d20260506_mean":3.5619955991857496E-4,"d20260507_count":81,"d20260507_mean":1.2133754766965067E-4,"d20260508_count":81,"d20260508_mean":7.611752726684573E-5,"d20260509_count":81,"d20260509_mean":6.94044448789302E-5,"d20260510_count":81,"d20260510_mean":6.12305101851032E-5,"d20260511_count":81,"d20260511_mean":1.526117046990122E-4,"d20260512_count":81,"d20260512_mean":2.4605599147018456E-4,"d20260513_count":81,"d20260513_mean":1.5440016416688428E-4,"d20260514_count":81,"d20260514_mean":7.473011250697036E-5,"d20260515_count":81,"d20260515_mean":6.748795721661236E-5,"d20260516_count":81,"d20260516_mean":9.991513262788287E-5,"d20260517_count":81,"d20260517_mean":1.395189810141615E-4,"d20260518_count":81,"d20260518_mean":7.15937701672592E-5,"d20260519_count":81,"d20260519_mean":1.0240075000470372E-4,"d20260520_count":81,"d20260520_mean":7.090786466733054E-5,"d20260521_count":81,"d20260521_mean":6.85918586482605E-5,"d20260522_count":81,"d20260522_mean":9.045484789723261E-5,"d20260523_count":81,"d20260523_mean":8.533306958869936E-5,"d20260524_count":81,"d20260524_mean":1.570690769005465E-4,"d20260525_count":81,"d20260525_mean":2.0440049849397245E-4,"d20260526_count":81,"d20260526_mean":1.1129790018976232E-4,"d20260527_count":81,"d20260527_mean":6.620527188221357E-5,"d20260528_count":81,"d20260528_mean":8.772365019401136E-5,"d20260529_count":81,"d20260529_mean":1.392920115693663E-4,"d20260530_count":81,"d20260530_mean":9.23202398709356E-5,"d20260531_count":81,"d20260531_mean":5.694054765395084E-5,"d20260601_count":81,"d20260601_mean":8.276913250069048E-5,"d20260602_count":81,"d20260602_mean":8.2895561291799E-5,"d20260603_count":81,"d20260603_mean":9.197680140663928E-5,"d20260604_count":81,"d20260604_mean":1.7949853567246173E-4,"d20260605_count":81,"d20260605_mean":2.1365207331164687E-4,"d20260606_count":81,"d20260606_mean":1.276686006517171E-4,"d20260607_count":81,"d20260607_mean":2.639505265274995E-4,"d20260608_count":81,"d20260608_mean":9.643107228508852E-5,"d20260609_count":81,"d20260609_mean":9.07094428655995E-5,"d20260610_count":81,"d20260610_mean":1.1215382818934777E-4,"d20260611_count":81,"d20260611_mean":1.0457818645628825E-4,"d20260612_count":81,"d20260612_mean":1.9335083649813683E-4,"d20260613_count":81,"d20260613_mean":4.124727343645452E-4,"d20260614_count":81,"d20260614_mean":1.9310739323416293E-4,"d20260615_count":81,"d20260615_mean":8.46963562631823E-5,"d20260616_count":81,"d20260616_mean":6.62030371578068E-5,"d20260617_count":0,"d20260618_count":81,"d20260618_mean":4.0903065654058677E-4,"d20260619_count":81,"d20260619_mean":5.777027094667019E-4,"d20260620_count":81,"d20260620_mean":9.849745998667478E-5,"d20260621_count":81,"d20260621_mean":6.245996304613808E-5,"d20260622_count":81,"d20260622_mean":1.7339132158113995E-4,"d20260623_count":81,"d20260623_mean":2.1580546448395188E-4,"d20260624_count":81,"d20260624_mean":1.537945751222778E-4,"d20260625_count":81,"d20260625_mean":2.8006303156425744E-4,"d20260626_count":81,"d20260626_mean":8.752602276135655E-5,"d20260627_count":81,"d20260627_mean":1.4155609479937255E-4,"d20260628_count":81,"d20260628_mean":9.384244073591415E-5,"d20260629_count":81,"d20260629_mean":1.746579319840805E-4,"d20260630_count":81,"d20260630_mean":1.0198866108072994E-4,"d20260701_count":81,"d20260701_mean":1.0044588414783508E-4,"d20260702_count":81,"d20260702_mean":7.049920633159783E-5,"d20260703_count":81,"d20260703_mean":1.406219244717925E-4,"d20260704_count":81,"d20260704_mean":1.3365445144272362E-4,"d20260705_count":81,"d20260705_mean":6.855745588636945E-5,"d20260706_count":81,"d20260706_mean":7.647615615161317E-5,"d20260707_count":81,"d20260707_mean":1.1118649765684435E-4,"d20260708_count":81,"d20260708_mean":1.2427535893542083E-4,"d20260709_count":81,"d20260709_mean":1.1822777236054164E-4,"d20260710_count":81,"d20260710_mean":1.1671173376828967E-4,"d20260711_count":81,"d20260711_mean":8.795280184901087E-5,"d20260712_count":81,"d20260712_mean":9.552441950187658E-5,"d20260713_count":81,"d20260713_mean":1.0270901263016987E-4,"d20260714_count":81,"d20260714_mean":2.42767771349541E-4,"d20260715_count":81,"d20260715_mean":2.763413533403156E-4,"d20260716_count":81,"d20260716_mean":1.9219318598652155E-4,"d20260717_count":81,"d20260717_mean":2.2391402746358972E-4,"d20260718_count":81,"d20260718_mean":2.258464966143381E-4,"d20260719_count":81,"d20260719_mean":1.2196194642810317E-4,"d20260720_count":81,"d20260720_mean":1.060188813192936E-4,"d20260721_count":81,"d20260721_mean":6.892207475079333E-5,"d20260722_count":81,"d20260722_mean":8.637095821544976E-5,"d20260723_count":81,"d20260723_mean":1.0933753523509606E-4,"d20260724_count":81,"d20260724_mean":1.6928768463755968E-4,"d20260725_count":81,"d20260725_mean":2.1358194225924403E-4,"d20260726_count":81,"d20260726_mean":2.0428402801071468E-4,"d20260727_count":81,"d20260727_mean":1.7103131182774525E-4,"d20260728_count":81,"d20260728_mean":2.620271226896054E-4,"d20260729_count":81,"d20260729_mean":5.109062881636232E-4,"d20260730_count":81,"d20260730_mean":6.545855040495093E-4,"d20260731_count":81,"d20260731_mean":3.7258699349399313E-4,"d20260801_count":81,"d20260801_mean":3.804466653408526E-4,"d20260802_count":81,"d20260802_mean":3.080325575422457E-4,"d20260803_count":81,"d20260803_mean":2.4721543337632345E-4,"d20260804_count":81,"d20260804_mean":1.8424403868774308E-4,"d20260805_count":81,"d20260805_mean":1.5001098906516002E-4,"d20260806_count":81,"d20260806_mean":1.6427581003410982E-4,"d20260807_count":81,"d20260807_mean":1.7867571113437826E-4,"d20260808_count":81,"d20260808_mean":2.381918548964803E-4,"d20260809_count":81,"d20260809_mean":1.6844246246652163E-4,"d20260810_count":81,"d20260810_mean":3.4383815671204233E-4,"d20260811_count":81,"d20260811_mean":1.7933804680576447E-4,"d20260812_count":81,"d20260812_mean":4.838370945944412E-4,"d20260813_count":81,"d20260813_mean":2.2976907490445384E-4,"d20260814_count":81,"d20260814_mean":1.0664244385083265E-4,"d20260815_count":81,"d20260815_mean":1.0189571563461985E-4,"d20260816_count":81,"d20260816_mean":1.2764837207824385E-4,"d20260817_count":81,"d20260817_mean":2.6867668016145854E-4,"d20260818_count":81,"d20260818_mean":2.4677730692828216E-4,"d20260819_count":81,"d20260819_mean":1.3902654902826856E-4,"d20260820_count":81,"d20260820_mean":1.51829515561665E-4,"d20260821_count":81,"d20260821_mean":1.7638994570603195E-4,"d20260822_count":0,"d20260823_count":81,"d20260823_mean":4.1476802049775755E-4,"d20260824_count":81,"d20260824_mean":1.9008225439743E-4,"d20260825_count":81,"d20260825_mean":3.269741210048144E-4,"d20260826_count":81,"d20260826_mean":2.2318103974392365E-4,"d20260827_count":81,"d20260827_mean":4.652641970576499E-4,"d20260828_count":81,"d20260828_mean":2.75258663717444E-4,"d20260829_count":81,"d20260829_mean":1.8855873027090442E-4,"d20260830_count":81,"d20260830_mean":8.118081975695345E-5,"d20260831_count":81,"d20260831_mean":1.13906777501557E-4,"site_id":"dubai"}},{"type":"Feature","geometry":null,"id":"1","properties":{"d20260101_count":89,"d20260101_mean":2.5724871304265206E-4,"d20260102_count":89,"d20260102_mean":1.1993642875527613E-4,"d20260103_count":89,"d20260103_mean":1.9591261474272986E-4,"d20260104_count":89,"d20260104_mean":1.2235498547628887E-4,"d20260105_count":89,"d20260105_mean":4.6810898443965014E-4,"d20260106_count":89,"d20260106_mean":4.382746642201513E-4,"d20260107_count":89,"d20260107_mean":1.624485454974813E-4,"d20260108_count":89,"d20260108_mean":7.904020631753803E-4,"d20260109_count":89,"d20260109_mean":7.778883232936E-4,"d20260110_count":17,"d20260110_mean":2.0156371938160754E-4,"d20260111_count":89,"d20260111_mean":5.539382814671566E-4,"d20260112_count":89,"d20260112_mean":2.4327242708787526E-4,"d20260113_count":89,"d20260113_mean":6.019778895246467E-4,"d20260114_count":89,"d20260114_mean":2.791948484346837E-4,"d20260115_count":63,"d20260115_mean":1.8197084342114715E-4,"d20260116_count":62,"d20260116_mean":8.275676713992017E-5,"d20260117_count":89,"d20260117_mean":7.279930195193754E-5,"d20260118_count":89,"d20260118_mean":9.803816134958082E-5,"d20260119_count":89,"d20260119_mean":3.39109186976704E-4,"d20260120_count":89,"d20260120_mean":2.1214491559570352E-4,"d20260121_count":89,"d20260121_mean":9.349583135481326E-5,"d20260122_count":89,"d20260122_mean":1.527266189904945E-4,"d20260123_count":89,"d20260123_mean":3.241591034662004E-4,"d20260124_count":89,"d20260124_mean":5.243381475688155E-4,"d20260125_count":76,"d20260125_mean":7.686979688675844E-5,"d20260126_count":89,"d20260126_mean":7.319803384204078E-5,"d20260127_count":89,"d20260127_mean":3.869683685279005E-4,"d20260128_count":89,"d20260128_mean":1.9917001981616155E-4,"d20260129_count":89,"d20260129_mean":1.6998324001934174E-4,"d20260130_count":89,"d20260130_mean":1.2490504406138372E-4,"d20260131_count":89,"d20260131_mean":1.9972172082301186E-4,"d20260201_count":89,"d20260201_mean":2.4164234279004033E-4,"d20260202_count":89,"d20260202_mean":2.794461694838483E-4,"d20260203_count":89,"d20260203_mean":9.953198183676821E-4,"d20260204_count":89,"d20260204_mean":1.1329141043496887E-4,"d20260205_count":89,"d20260205_mean":1.6159905749052735E-4,"d20260206_count":58,"d20260206_mean":6.272179974898221E-4,"d20260207_count":89,"d20260207_mean":2.645117362763716E-4,"d20260208_count":89,"d20260208_mean":1.543180590135134E-4,"d20260209_count":89,"d20260209_mean":1.2794925782354998E-4,"d20260210_count":89,"d20260210_mean":1.9775191592597756E-4,"d20260211_count":89,"d20260211_mean":7.881975224792078E-4,"d20260212_count":89,"d20260212_mean":2.0686133695216232E-4,"d20260213_count":89,"d20260213_mean":2.843658165772208E-4,"d20260214_count":89,"d20260214_mean":4.359750180546973E-4,"d20260215_count":89,"d20260215_mean":1.5060663432637603E-4,"d20260216_count":89,"d20260216_mean":1.2638763069929167E-4,"d20260217_count":89,"d20260217_mean":6.096730729936061E-4,"d20260218_count":89,"d20260218_mean":4.93757725881927E-4,"d20260219_count":89,"d20260219_mean":9.985721810330302E-4,"d20260220_count":89,"d20260220_mean":9.763355721519822E-4,"d20260221_count":89,"d20260221_mean":8.04895162953294E-4,"d20260222_count":89,"d20260222_mean":1.5297075892951886E-4,"d20260223_count":89,"d20260223_mean":1.7937501139441233E-4,"d20260224_count":89,"d20260224_mean":2.9458864029960585E-4,"d20260225_count":89,"d20260225_mean":2.1245322085881142E-4,"d20260226_count":89,"d20260226_mean":1.2387461283871107E-4,"d20260227_count":89,"d20260227_mean":1.4837468365720745E-4,"d20260228_count":89,"d20260228_mean":2.749651329295195E-4,"d20260301_count":89,"d20260301_mean":2.1790185675106132E-4,"d20260302_count":89,"d20260302_mean":1.5203308142033468E-4,"d20260303_count":89,"d20260303_mean":2.3366941841667768E-4,"d20260304_count":89,"d20260304_mean":1.235036716231937E-4,"d20260305_count":89,"d20260305_mean":6.97572293592172E-5,"d20260306_count":8,"d20260306_mean":1.0900910886033718E-4,"d20260307_count":89,"d20260307_mean":7.881334555817682E-5,"d20260308_count":89,"d20260308_mean":6.936665640601583E-5,"d20260309_count":47,"d20260309_mean":2.7136243198028215E-4,"d20260310_count":89,"d20260310_mean":5.021865674705773E-4,"d20260311_count":43,"d20260311_mean":1.560577315281626E-4,"d20260312_count":0,"d20260313_count":36,"d20260313_mean":4.5279742585585666E-4,"d20260314_count":89,"d20260314_mean":1.5438922555074402E-4,"d20260315_count":89,"d20260315_mean":4.325306133845402E-4,"d20260316_count":89,"d20260316_mean":2.4256302166997842E-4,"d20260317_count":89,"d20260317_mean":7.344073987211875E-5,"d20260318_count":0,"d20260319_count":89,"d20260319_mean":2.3177963172330037E-4,"d20260320_count":0,"d20260321_count":0,"d20260322_count":89,"d20260322_mean":8.705813169041975E-5,"d20260323_count":0,"d20260324_count":0,"d20260325_count":0,"d20260326_count":53,"d20260326_mean":4.629984786092927E-5,"d20260327_count":0,"d20260328_count":89,"d20260328_mean":6.690930747651031E-5,"d20260329_count":89,"d20260329_mean":5.293689201308434E-5,"d20260330_count":0,"d20260331_count":0,"d20260401_count":89,"d20260401_mean":5.8827522681055803E-5,"d20260402_count":89,"d20260402_mean":6.843051220481141E-5,"d20260403_count":89,"d20260403_mean":9.38007723036078E-5,"d20260404_count":0,"d20260405_count":89,"d20260405_mean":1.0837556286341802E-4,"d20260406_count":22,"d20260406_mean":7.685161104374647E-5,"d20260407_count":89,"d20260407_mean":5.262587364844417E-5,"d20260408_count":89,"d20260408_mean":8.105996898228702E-5,"d20260409_count":0,"d20260410_count":83,"d20260410_mean":2.125013514198175E-4,"d20260411_count":0,"d20260412_count":0,"d20260413_count":0,"d20260414_count":32,"d20260414_mean":7.854193881902974E-5,"d20260415_count":89,"d20260415_mean":7.953168205344405E-5,"d20260416_count":89,"d20260416_mean":7.900897033459769E-5,"d20260417_count":89,"d20260417_mean":7.276528615911214E-5,"d20260418_count":89,"d20260418_mean":7.034714191593804E-5,"d20260419_count":89,"d20260419_mean":1.2399263170271554E-4,"d20260420_count":89,"d20260420_mean":1.3915246733511228E-4,"d20260421_count":88,"d20260421_mean":1.6950375239197413E-4,"d20260422_count":89,"d20260422_mean":2.2413988019377888E-4,"d20260423_count":89,"d20260423_mean":1.8211855122376343E-4,"d20260424_count":89,"d20260424_mean":1.2614814351080114E-4,"d20260425_count":89,"d20260425_mean":1.293153139742244E-4,"d20260426_count":0,"d20260427_count":89,"d20260427_mean":9.591486622621403E-5,"d20260428_count":89,"d20260428_mean":1.0736732831356202E-4,"d20260429_count":89,"d20260429_mean":1.3327017895228474E-4,"d20260430_count":89,"d20260430_mean":9.675929958591337E-5,"d20260501_count":89,"d20260501_mean":1.4263391854196057E-4,"d20260502_count":89,"d20260502_mean":1.0228907827644188E-4,"d20260503_count":89,"d20260503_mean":1.2872451515293155E-4,"d20260504_count":89,"d20260504_mean":9.712148894151013E-5,"d20260505_count":89,"d20260505_mean":4.2635566390213206E-4,"d20260506_count":89,"d20260506_mean":3.441749201162675E-4,"d20260507_count":89,"d20260507_mean":1.7814897261062237E-4,"d20260508_count":89,"d20260508_mean":8.605384722521805E-5,"d20260509_count":89,"d20260509_mean":7.868969285741531E-5,"d20260510_count":89,"d20260510_mean":7.025260481959262E-5,"d20260511_count":89,"d20260511_mean":1.2592907064050337E-4,"d20260512_count":89,"d20260512_mean":1.9549152224040633E-4,"d20260513_count":89,"d20260513_mean":1.7489236900932557E-4,"d20260514_count":89,"d20260514_mean":8.670108431789271E-5,"d20260515_count":89,"d20260515_mean":8.914757598379676E-5,"d20260516_count":89,"d20260516_mean":1.4207349654887233E-4,"d20260517_count":89,"d20260517_mean":1.320544233245305E-4,"d20260518_count":89,"d20260518_mean":8.127353586561735E-5,"d20260519_count":89,"d20260519_mean":1.006704506693425E-4,"d20260520_count":89,"d20260520_mean":7.700893106263203E-5,"d20260521_count":89,"d20260521_mean":9.941277426779926E-5,"d20260522_count":89,"d20260522_mean":1.3798334831287745E-4,"d20260523_count":89,"d20260523_mean":1.3548616727397466E-4,"d20260524_count":89,"d20260524_mean":2.0575657244183875E-4,"d20260525_count":89,"d20260525_mean":1.624844765898507E-4,"d20260526_count":89,"d20260526_mean":1.3578609202672228E-4,"d20260527_count":89,"d20260527_mean":1.0863201434138565E-4,"d20260528_count":89,"d20260528_mean":1.277799750392605E-4,"d20260529_count":89,"d20260529_mean":1.382190565018665E-4,"d20260530_count":89,"d20260530_mean":1.0702575068614584E-4,"d20260531_count":89,"d20260531_mean":7.45809253517638E-5,"d20260601_count":89,"d20260601_mean":8.946145888894879E-5,"d20260602_count":89,"d20260602_mean":8.991044083363049E-5,"d20260603_count":89,"d20260603_mean":1.2554566591673283E-4,"d20260604_count":89,"d20260604_mean":1.856846193956763E-4,"d20260605_count":89,"d20260605_mean":1.3844502081025416E-4,"d20260606_count":89,"d20260606_mean":1.323431533044682E-4,"d20260607_count":89,"d20260607_mean":2.1361250294878756E-4,"d20260608_count":89,"d20260608_mean":1.3214626868729475E-4,"d20260609_count":89,"d20260609_mean":1.0035669158848315E-4,"d20260610_count":89,"d20260610_mean":1.2332708812733167E-4,"d20260611_count":89,"d20260611_mean":1.303019099364182E-4,"d20260612_count":89,"d20260612_mean":1.4339166067588893E-4,"d20260613_count":89,"d20260613_mean":5.168289181081781E-4,"d20260614_count":89,"d20260614_mean":2.691192564576243E-4,"d20260615_count":89,"d20260615_mean":9.587156281051976E-5,"d20260616_count":89,"d20260616_mean":7.97491928708388E-5,"d20260617_count":0,"d20260618_count":89,"d20260618_mean":5.022319840874751E-4,"d20260619_count":89,"d20260619_mean":6.050438615545218E-4,"d20260620_count":89,"d20260620_mean":1.1095764483455378E-4,"d20260621_count":89,"d20260621_mean":8.99095143175E-5,"d20260622_count":89,"d20260622_mean":2.6104906328589845E-4,"d20260623_count":89,"d20260623_mean":1.5356850397032853E-4,"d20260624_count":89,"d20260624_mean":1.391942571440805E-4,"d20260625_count":89,"d20260625_mean":2.0477134979559984E-4,"d20260626_count":89,"d20260626_mean":1.0643831192286521E-4,"d20260627_count":89,"d20260627_mean":2.4193135736113618E-4,"d20260628_count":89,"d20260628_mean":1.428289347612576E-4,"d20260629_count":89,"d20260629_mean":1.2382444427044563E-4,"d20260630_count":89,"d20260630_mean":1.1369512655384676E-4,"d20260701_count":89,"d20260701_mean":9.156495340392141E-5,"d20260702_count":89,"d20260702_mean":1.0679685541116009E-4,"d20260703_count":89,"d20260703_mean":1.3735299679776386E-4,"d20260704_count":89,"d20260704_mean":1.248789225931569E-4,"d20260705_count":89,"d20260705_mean":1.3434104475413712E-4,"d20260706_count":89,"d20260706_mean":9.416636852790408E-5,"d20260707_count":89,"d20260707_mean":1.2107930658221588E-4,"d20260708_count":89,"d20260708_mean":1.5310743060513375E-4,"d20260709_count":0,"d20260710_count":89,"d20260710_mean":1.1764302946696522E-4,"d20260711_count":89,"d20260711_mean":9.434310830050626E-5,"d20260712_count":89,"d20260712_mean":9.830809240124232E-5,"d20260713_count":89,"d20260713_mean":1.0668199129957723E-4,"d20260714_count":89,"d20260714_mean":2.8712667322489165E-4,"d20260715_count":89,"d20260715_mean":3.236331150612041E-4,"d20260716_count":89,"d20260716_mean":2.4214484732787997E-4,"d20260717_count":89,"d20260717_mean":1.8947201714936975E-4,"d20260718_count":89,"d20260718_mean":2.4578491725236654E-4,"d20260719_count":89,"d20260719_mean":1.1637960592054096E-4,"d20260720_count":89,"d20260720_mean":1.3812257946408256E-4,"d20260721_count":89,"d20260721_mean":9.088020864707702E-5,"d20260722_count":89,"d20260722_mean":9.38135142550131E-5,"d20260723_count":89,"d20260723_mean":1.145503820008067E-4,"d20260724_count":89,"d20260724_mean":1.7411550409724354E-4,"d20260725_count":89,"d20260725_mean":3.663250186674799E-4,"d20260726_count":89,"d20260726_mean":2.7821086264492704E-4,"d20260727_count":89,"d20260727_mean":1.2987519497164793E-4,"d20260728_count":89,"d20260728_mean":1.3745308063554357E-4,"d20260729_count":89,"d20260729_mean":3.400010097259058E-4,"d20260730_count":89,"d20260730_mean":6.002929419509479E-4,"d20260731_count":89,"d20260731_mean":3.553286248633613E-4,"d20260801_count":89,"d20260801_mean":1.8678364844976233E-4,"d20260802_count":89,"d20260802_mean":2.1207593227255477E-4,"d20260803_count":89,"d20260803_mean":2.5382403209657246E-4,"d20260804_count":89,"d20260804_mean":2.0088131598520467E-4,"d20260805_count":89,"d20260805_mean":1.38033119713645E-4,"d20260806_count":89,"d20260806_mean":1.1663926608661533E-4,"d20260807_count":89,"d20260807_mean":1.257389012216855E-4,"d20260808_count":89,"d20260808_mean":1.505691309509636E-4,"d20260809_count":89,"d20260809_mean":2.1332506108854936E-4,"d20260810_count":89,"d20260810_mean":2.1908600060300572E-4,"d20260811_count":89,"d20260811_mean":1.4412351314633582E-4,"d20260812_count":88,"d20260812_mean":3.49751860311189E-4,"d20260813_count":89,"d20260813_mean":1.515657896428833E-4,"d20260814_count":89,"d20260814_mean":1.421265891589136E-4,"d20260815_count":89,"d20260815_mean":1.2841930510636178E-4,"d20260816_count":0,"d20260817_count":89,"d20260817_mean":2.396208651531739E-4,"d20260818_count":89,"d20260818_mean":2.4980665513124E-4,"d20260819_count":89,"d20260819_mean":9.638180979485719E-5,"d20260820_count":89,"d20260820_mean":1.2969401651595966E-4,"d20260821_count":89,"d20260821_mean":3.6162602797208985E-4,"d20260822_count":27,"d20260822_mean":1.45182075085015E-4,"d20260823_count":89,"d20260823_mean":3.6965932151999703E-4,"d20260824_count":89,"d20260824_mean":1.3125182198965243E-4,"d20260825_count":89,"d20260825_mean":2.0275036669732227E-4,"d20260826_count":89,"d20260826_mean":1.7863060548331425E-4,"d20260827_count":89,"d20260827_mean":2.1142528997061694E-4,"d20260828_count":89,"d20260828_mean":1.4023333885388999E-4,"d20260829_count":89,"d20260829_mean":1.3600219965361604E-4,"d20260830_count":89,"d20260830_mean":1.0375204092064684E-4,"d20260831_count":89,"d20260831_mean":1.7118705783030307E-4,"site_id":"jebel-ali"}}]}